SL-16 R/B               
1 22803U 93059B   26087.11033061 -.00000178  00000+0 -64469-4 0  9999
2 22803  70.9920 332.2838 0017450 189.8461 170.2324 14.17235097682146
ARIANE 40 R/B           
1 22830U 93061H   26087.41309449  .00000214  00000+0  94224-4 0  9992
2 22830  98.4882 155.9282 0009995 223.7471 136.2922 14.32870728696789
COSMOS 2278             
1 23087U 94023A   26087.55164093 -.00000227  00000+0 -94164-4 0  9994
2 23087  71.0517 135.6380 0009149 343.9389  16.1442 14.14375534647474
SL-16 R/B               
1 23088U 94023B   26087.58964785  .00000344  00000+0  20215-3 0  9997
2 23088  71.0017  31.1932 0005463 268.0956  91.9541 14.15015157648762
SL-16 R/B               
1 23343U 94074B   26087.60584609  .00000487  00000+0  71793-4 0  9999
2 23343  97.7082 117.6555 0007271 148.9758 324.1690 14.79428919690047
SL-16 R/B               
1 23405U 94077B   26087.56387174 -.00000050  00000+0 -98355-6 0  9997
2 23405  70.9835 312.7834 0001960 197.2036 162.9021 14.15569243618905
ARIANE 40+ R/B          
1 23561U 95021B   26087.43178219  .00000300  00000+0  10951-3 0  9993
2 23561  98.4464 158.6575 0007927  88.2198 282.3068 14.39785618621945
SL-16 R/B               
1 23705U 95058B   26087.57177234 -.00000252  00000+0 -10466-3 0  9993
2 23705  71.0203 140.6153 0010116  90.7890 269.4393 14.15499218570523
SL-16 R/B               
1 24298U 96051B   26087.57948446  .00000102  00000+0  81774-4 0  9999
2 24298  70.7586 135.2585 0013534 117.5707 242.6789 14.12420968524313
ORBVIEW 2 (SEASTAR)     
1 24883U 97037A   26087.44646309  .00000324  00000+0  12904-3 0  9997
2 24883  98.8601 252.2585 0002421  31.3361 328.7968 14.35507896511169
SL-16 R/B               
1 25400U 98043G   26087.60550538  .00000064  00000+0  45974-4 0  9992
2 25400  98.8285  41.1067 0009214 325.2343  34.8233 14.26054040441682
SL-16 R/B               
1 25407U 98045B   26087.57342642 -.00000248  00000+0 -10090-3 0  9998
2 25407  71.0101 141.8647 0007970 338.8806  21.1987 14.16194073429773
ISS (ZARYA)             
1 25544U 98067A   26087.48736240  .00011758  00000+0  22419-3 0  9999
2 25544  51.6344 339.4313 0006231 242.6596 117.3758 15.48607800559243
CZ-4B R/B               
1 25732U 99025C   26087.59229702  .00000048  00000+0  44234-4 0  9995
2 25732  98.6588 131.4229 0036025 291.0707 231.6188 14.18268966390843
OKEAN-O                 
1 25860U 99039A   26087.44274478  .00000706  00000+0  99426-4 0  9990
2 25860  97.9404 147.1401 0000874  91.7291 268.4021 14.80364788437165
SL-16 R/B               
1 25861U 99039B   26087.60757455  .00000609  00000+0  83969-4 0  9997
2 25861  97.9925 146.6722 0014539 190.9229 169.1670 14.81756734439661
DELTA 2 R/B             
1 25876U 99041E   26087.55537823  .00000902  00000+0  18460-3 0  9994
2 25876  51.7606 225.9171 0502652  44.0691 319.9180 14.11879444365699
