[{"OBJECT_NAME":"SL-16 R/B","OBJECT_ID":"1993-059B","EPOCH":"2026-03-28T02:38:52.564704","MEAN_MOTION":14.17235097,"ECCENTRICITY":0.00174502,"INCLINATION":70.992,"RA_OF_ASC_NODE":332.2838,"ARG_OF_PERICENTER":189.8461,"MEAN_ANOMALY":170.2324,"EPHEMERIS_TYPE":0,"CLASSIFICATION_TYPE":"U","NORAD_CAT_ID":22803,"ELEMENT_SET_NO":999,"REV_AT_EPOCH":68214,"BSTAR":-6.4469252e-5,"MEAN_MOTION_DOT":-1.78e-6,"MEAN_MOTION_DDOT":0},{"OBJECT_NAME":"ARIANE 40 R/B","OBJECT_ID":"1993-061H","EPOCH":"2026-03-28T09:54:51.363936","MEAN_MOTION":14.32870728,"ECCENTRICITY":0.00099952,"INCLINATION":98.4882,"RA_OF_ASC_NODE":155.9282,"ARG_OF_PERICENTER":223.7471,"MEAN_ANOMALY":136.2922,"EPHEMERIS_TYPE":0,"CLASSIFICATION_TYPE":"U","NORAD_CAT_ID":22830,"ELEMENT_SET_NO":999,"REV_AT_EPOCH":69678,"BSTAR":9.4224419e-5,"MEAN_MOTION_DOT":2.14e-6,"MEAN_MOTION_DDOT":0},{"OBJECT_NAME":"COSMOS 2278","OBJECT_ID":"1994-023A","EPOCH":"2026-03-28T13:14:21.776352","MEAN_MOTION":14.14375534,"ECCENTRICITY":0.00091491,"INCLINATION":71.0517,"RA_OF_ASC_NODE":135.638,"ARG_OF_PERICENTER":343.9389,"MEAN_ANOMALY":16.1442,"EPHEMERIS_TYPE":0,"CLASSIFICATION_TYPE":"U","NORAD_CAT_ID":23087,"ELEMENT_SET_NO":999,"REV_AT_EPOCH":64747,"BSTAR":-9.4163503e-5,"MEAN_MOTION_DOT":-2.27e-6,"MEAN_MOTION_DDOT":0},{"OBJECT_NAME":"SL-16 R/B","OBJECT_ID":"1994-023B","EPOCH":"2026-03-28T14:09:05.574240","MEAN_MOTION":14.15015157,"ECCENTRICITY":0.00054639,"INCLINATION":71.0017,"RA_OF_ASC_NODE":31.1932,"ARG_OF_PERICENTER":268.0956,"MEAN_ANOMALY":91.9541,"EPHEMERIS_TYPE":0,"CLASSIFICATION_TYPE":"U","NORAD_CAT_ID":23088,"ELEMENT_SET_NO":999,"REV_AT_EPOCH":64876,"BSTAR":0.00020214737,"MEAN_MOTION_DOT":3.44e-6,"MEAN_MOTION_DDOT":0},{"OBJECT_NAME":"SL-16 R/B","OBJECT_ID":"1994-074B","EPOCH":"2026-03-28T14:32:25.102176","MEAN_MOTION":14.79428919,"ECCENTRICITY":0.00072713,"INCLINATION":97.7082,"RA_OF_ASC_NODE":117.6555,"ARG_OF_PERICENTER":148.9758,"MEAN_ANOMALY":324.169,"EPHEMERIS_TYPE":0,"CLASSIFICATION_TYPE":"U","NORAD_CAT_ID":23343,"ELEMENT_SET_NO":999,"REV_AT_EPOCH":69004,"BSTAR":7.1793234e-5,"MEAN_MOTION_DOT":4.87e-6,"MEAN_MOTION_DDOT":0},{"OBJECT_NAME":"SL-16 R/B","OBJECT_ID":"1994-077B","EPOCH":"2026-03-28T13:31:58.518336","MEAN_MOTION":14.15569243,"ECCENTRICITY":0.00019606,"INCLINATION":70.9835,"RA_OF_ASC_NODE":312.7834,"ARG_OF_PERICENTER":197.2036,"MEAN_ANOMALY":162.9021,"EPHEMERIS_TYPE":0,"CLASSIFICATION_TYPE":"U","NORAD_CAT_ID":23405,"ELEMENT_SET_NO":999,"REV_AT_EPOCH":61890,"BSTAR":-9.83549e-7,"MEAN_MOTION_DOT":-5.0e-7,"MEAN_MOTION_DDOT":0},{"OBJECT_NAME":"ARIANE 40+ R/B","OBJECT_ID":"1995-021B","EPOCH":"2026-03-28T10:21:45.981216","MEAN_MOTION":14.39785618,"ECCENTRICITY":0.00079274,"INCLINATION":98.4464,"RA_OF_ASC_NODE":158.6575,"ARG_OF_PERICENTER":88.2198,"MEAN_ANOMALY":282.3068,"EPHEMERIS_TYPE":0,"CLASSIFICATION_TYPE":"U","NORAD_CAT_ID":23561,"ELEMENT_SET_NO":999,"REV_AT_EPOCH":62194,"BSTAR":0.00010950853,"MEAN_MOTION_DOT":3.0e-6,"MEAN_MOTION_DDOT":0},{"OBJECT_NAME":"SL-16 R/B","OBJECT_ID":"1995-058B","EPOCH":"2026-03-28T13:43:21.130176","MEAN_MOTION":14.15499218,"ECCENTRICITY":0.00101163,"INCLINATION":71.0203,"RA_OF_ASC_NODE":140.6153,"ARG_OF_PERICENTER":90.789,"MEAN_ANOMALY":269.4393,"EPHEMERIS_TYPE":0,"CLASSIFICATION_TYPE":"U","NORAD_CAT_ID":23705,"ELEMENT_SET_NO":999,"REV_AT_EPOCH":57052,"BSTAR":-0.00010466011,"MEAN_MOTION_DOT":-2.52e-6,"MEAN_MOTION_DDOT":0},{"OBJECT_NAME":"SL-16 R/B","OBJECT_ID":"1996-051B","EPOCH":"2026-03-28T13:54:27.457344","MEAN_MOTION":14.12420968,"ECCENTRICITY":0.00135344,"INCLINATION":70.7586,"RA_OF_ASC_NODE":135.2585,"ARG_OF_PERICENTER":117.5707,"MEAN_ANOMALY":242.6789,"EPHEMERIS_TYPE":0,"CLASSIFICATION_TYPE":"U","NORAD_CAT_ID":24298,"ELEMENT_SET_NO":999,"REV_AT_EPOCH":52431,"BSTAR":8.1773781e-5,"MEAN_MOTION_DOT":1.02e-6,"MEAN_MOTION_DDOT":0},{"OBJECT_NAME":"ORBVIEW 2 (SEASTAR)","OBJECT_ID":"1997-037A","EPOCH":"2026-03-28T10:42:54.410976","MEAN_MOTION":14.35507896,"ECCENTRICITY":0.00024211,"INCLINATION":98.8601,"RA_OF_ASC_NODE":252.2585,"ARG_OF_PERICENTER":31.3361,"MEAN_ANOMALY":328.7968,"EPHEMERIS_TYPE":0,"CLASSIFICATION_TYPE":"U","NORAD_CAT_ID":24883,"ELEMENT_SET_NO":999,"REV_AT_EPOCH":51116,"BSTAR":0.00012904185,"MEAN_MOTION_DOT":3.24e-6,"MEAN_MOTION_DDOT":0},{"OBJECT_NAME":"SL-16 R/B","OBJECT_ID":"1998-043G","EPOCH":"2026-03-28T14:31:55.664832","MEAN_MOTION":14.2605404,"ECCENTRICITY":0.00092146,"INCLINATION":98.8285,"RA_OF_ASC_NODE":41.1067,"ARG_OF_PERICENTER":325.2343,"MEAN_ANOMALY":34.8233,"EPHEMERIS_TYPE":0,"CLASSIFICATION_TYPE":"U","NORAD_CAT_ID":25400,"ELEMENT_SET_NO":999,"REV_AT_EPOCH":44168,"BSTAR":4.5973622e-5,"MEAN_MOTION_DOT":6.4e-7,"MEAN_MOTION_DDOT":0},{"OBJECT_NAME":"SL-16 R/B","OBJECT_ID":"1998-045B","EPOCH":"2026-03-28T13:45:44.042688","MEAN_MOTION":14.16194073,"ECCENTRICITY":0.00079704,"INCLINATION":71.0101,"RA_OF_ASC_NODE":141.8647,"ARG_OF_PERICENTER":338.8806,"MEAN_ANOMALY":21.1987,"EPHEMERIS_TYPE":0,"CLASSIFICATION_TYPE":"U","NORAD_CAT_ID":25407,"ELEMENT_SET_NO":999,"REV_AT_EPOCH":42977,"BSTAR":-0.00010090492,"MEAN_MOTION_DOT":-2.48e-6,"MEAN_MOTION_DDOT":0},{"OBJECT_NAME":"ISS (ZARYA)","OBJECT_ID":"1998-067A","EPOCH":"2026-03-28T11:41:48.111360","MEAN_MOTION":15.486078,"ECCENTRICITY":0.0006231,"INCLINATION":51.6344,"RA_OF_ASC_NODE":339.4313,"ARG_OF_PERICENTER":242.6596,"MEAN_ANOMALY":117.3758,"EPHEMERIS_TYPE":0,"CLASSIFICATION_TYPE":"U","NORAD_CAT_ID":25544,"ELEMENT_SET_NO":999,"REV_AT_EPOCH":55924,"BSTAR":0.00022419,"MEAN_MOTION_DOT":0.00011758,"MEAN_MOTION_DDOT":0},{"OBJECT_NAME":"CZ-4B R/B","OBJECT_ID":"1999-025C","EPOCH":"2026-03-28T14:12:54.462528","MEAN_MOTION":14.18268966,"ECCENTRICITY":0.00360255,"INCLINATION":98.6588,"RA_OF_ASC_NODE":131.4229,"ARG_OF_PERICENTER":291.0707,"MEAN_ANOMALY":231.6188,"EPHEMERIS_TYPE":0,"CLASSIFICATION_TYPE":"U","NORAD_CAT_ID":25732,"ELEMENT_SET_NO":999,"REV_AT_EPOCH":39084,"BSTAR":4.4233799e-5,"MEAN_MOTION_DOT":4.8e-7,"MEAN_MOTION_DDOT":0},{"OBJECT_NAME":"OKEAN-O","OBJECT_ID":"1999-039A","EPOCH":"2026-03-28T10:37:33.148992","MEAN_MOTION":14.80364788,"ECCENTRICITY":8.747e-5,"INCLINATION":97.9404,"RA_OF_ASC_NODE":147.1401,"ARG_OF_PERICENTER":91.7291,"MEAN_ANOMALY":268.4021,"EPHEMERIS_TYPE":0,"CLASSIFICATION_TYPE":"U","NORAD_CAT_ID":25860,"ELEMENT_SET_NO":999,"REV_AT_EPOCH":43716,"BSTAR":9.942572e-5,"MEAN_MOTION_DOT":7.06e-6,"MEAN_MOTION_DDOT":0},{"OBJECT_NAME":"SL-16 R/B","OBJECT_ID":"1999-039B","EPOCH":"2026-03-28T14:34:54.441120","MEAN_MOTION":14.81756734,"ECCENTRICITY":0.00145398,"INCLINATION":97.9925,"RA_OF_ASC_NODE":146.6722,"ARG_OF_PERICENTER":190.9229,"MEAN_ANOMALY":169.167,"EPHEMERIS_TYPE":0,"CLASSIFICATION_TYPE":"U","NORAD_CAT_ID":25861,"ELEMENT_SET_NO":999,"REV_AT_EPOCH":43966,"BSTAR":8.3969153e-5,"MEAN_MOTION_DOT":6.09e-6,"MEAN_MOTION_DDOT":0},{"OBJECT_NAME":"DELTA 2 R/B","OBJECT_ID":"1999-041E","EPOCH":"2026-03-28T13:19:44.679072","MEAN_MOTION":14.11879444,"ECCENTRICITY":0.05026524,"INCLINATION":51.7606,"RA_OF_ASC_NODE":225.9171,"ARG_OF_PERICENTER":44.0691,"MEAN_ANOMALY":319.918,"EPHEMERIS_TYPE":0,"CLASSIFICATION_TYPE":"U","NORAD_CAT_ID":25876,"ELEMENT_SET_NO":999,"REV_AT_EPOCH":36569,"BSTAR":0.00018459657,"MEAN_MOTION_DOT":9.02e-6,"MEAN_MOTION_DDOT":0}]
